[
    {
        "Altitude(m)": 607886.741450573,
        "Argument of Periapsis(deg)": 0.0,
        "Eccentricity": 0.0,
        "Inclination(deg)": 60.0,
        "Latitude(deg)": 40.998579091835154,
        "Longitude(deg)": 109.97296733832944,
        "Mean Anomaly(deg)": 49.09089999999999,
        "RAAN(deg)": 180.0,
        "Satellite Name": "Test1 795",
        "Satellite Number": 795,
        "Semi-Major Axis(m)": 6980739.136638005,
        "Time(s)": 0
    },
    {
        "Altitude(m)": 607987.6556453226,
        "Argument of Periapsis(deg)": 0.00010418945913296404,
        "Eccentricity": 0.0,
        "Inclination(deg)": 60.0,
        "Latitude(deg)": 41.46366927385662,
        "Longitude(deg)": 110.47719605471553,
        "Mean Anomaly(deg)": 49.711006145461795,
        "RAAN(deg)": 179.99957995086024,
        "Satellite Name": "Test1 795",
        "Satellite Number": 795,
        "Semi-Major Axis(m)": 6980739.136638005,
        "Time(s)": 10
    }
]